OBJECT_NAME,OBJECT_ID,EPOCH,MEAN_MOTION,ECCENTRICITY,INCLINATION,RA_OF_ASC_NODE,ARG_OF_PERICENTER,MEAN_ANOMALY,EPHEMERIS_TYPE,CLASSIFICATION_TYPE,NORAD_CAT_ID,ELEMENT_SET_NO,REV_AT_EPOCH,BSTAR,MEAN_MOTION_DOT,MEAN_MOTION_DDOT
GAOFEN-11 01,2018-063A,2026-07-20T22:35:21.914304,15.56177726,.0003827,97.1269,268.7425,178.0901,182.0370,0,U,43585,999,44559,.14190358E-3,.9836E-4,0
ICESAT-2,2018-070A,2026-07-20T21:03:04.017312,15.28236110,.00049544,92.0085,300.0838,45.8361,314.3295,0,U,43613,999,43760,.22482289E-3,.6185E-4,0
HYSIS,2018-096A,2026-07-20T23:29:40.150752,14.78675538,.00017626,97.9819,268.4594,82.1592,277.9819,0,U,43719,999,41241,.34902731E-4,.204E-5,0
KAZSTSAT,2018-099AB,2026-07-20T01:16:37.363008,14.99958351,.00071903,97.4309,231.5017,320.5226,39.5473,0,U,43783,999,41623,.6151122E-5,.21E-6,0
SAUDISAT 5A,2018-102A,2026-07-20T22:50:07.401120,15.28356355,.00098794,97.3046,262.8850,25.0740,335.0977,0,U,43831,999,42083,.13162842E-3,.3565E-4,0
SAUDISAT 5B,2018-102C,2026-07-20T23:09:21.445920,15.28597608,.00106488,97.3155,266.0290,26.3811,333.7969,0,U,43833,999,42095,.12416153E-3,.3384E-4,0
GAOFEN-10R,2019-066A,2026-07-20T22:56:55.325760,14.83064966,.00065619,98.0512,155.7843,37.4039,322.7630,0,U,44622,999,36738,.90293441E-4,.68E-5,0
CARTOSAT-3,2019-081A,2026-07-20T22:41:27.038112,15.19205718,.00125556,97.4283,263.2651,41.0693,319.1484,0,U,44804,999,36859,.77429017E-4,.1564E-4,0
GAOFEN-12 01,2019-082A,2026-07-20T22:34:59.005344,14.80482282,.00007056,97.8112,207.4313,66.3293,293.7993,0,U,44819,999,35908,.35343147E-4,.22E-5,0
CSG-1,2019-092A,2026-07-20T22:35:57.998400,14.82159597,.00014618,97.8900,25.0571,94.8050,265.3330,0,U,44873,999,35647,.3195933E-4,.202E-5,0
NEMO-HD,2020-061F,2026-07-20T22:33:33.632640,15.45215577,.00010316,97.1897,263.5631,113.0038,247.1320,0,U,46277,999,32719,.17559297E-3,.8252E-4,0
SENTINEL-6A,2020-086A,2026-07-20T21:25:00.055200,12.80930248,.00077852,66.0411,65.0469,269.6345,90.3778,0,U,46984,999,26464,-.6180367E-5,-.62E-6,0
CAS500-1,2021-022A,2026-07-20T23:06:21.970656,15.20169261,.00057949,97.3852,96.5247,152.6759,207.4782,0,U,47932,999,29589,.17716683E-3,.3768E-4,0
GAOFEN-12 02,2021-026A,2026-07-20T22:56:08.731104,14.80318742,.00061146,97.9939,200.0011,117.3085,242.8750,0,U,48079,999,28675,.34047062E-4,.207E-5,0
PLEIADES NEO 3,2021-034A,2026-07-20T22:50:41.166240,14.81660784,.00013666,97.8937,276.2330,98.1626,261.9742,0,U,48268,999,28265,.1682367E-4,.8E-6,0
PLEIADES NEO 4,2021-073E,2026-07-20T22:02:01.477824,14.81674731,.00013888,97.8935,276.1957,95.8500,264.2872,0,U,49070,999,26636,.94436283E-4,.691E-5,0
LANDSAT 9,2021-088A,2026-07-20T21:55:24.891456,14.57098108,.00010741,98.2265,271.6799,92.7210,267.4111,0,U,49260,999,25591,.53463697E-4,.195E-5,0
CSG-2,2022-008A,2026-07-19T08:31:21.408096,14.82176378,.00016613,97.8896,23.4868,89.8481,270.2922,0,U,51444,999,24135,.45603774E-4,.311E-5,0
GAOFEN-12 03,2022-069A,2026-07-20T23:47:28.982688,14.80082272,.00023748,97.8230,89.0023,67.1992,292.9471,0,U,52912,999,21961,.10983833E-3,.782E-5,0
SWOT,2022-173A,2026-07-20T20:34:51.914784,14.00172571,.0000225,77.6117,349.8539,67.5415,292.5760,0,U,54754,999,18386,.17292021E-4,.23E-6,0
GAOFEN-12 04,2023-123A,2026-07-20T22:40:09.532128,14.79781874,.00032061,97.9096,119.4561,37.9161,322.2276,0,U,57654,999,15762,.81057827E-4,.558E-5,0
PARS 1,2024-039Q,2026-07-20T23:16:56.030016,15.46369752,.00090169,97.4847,183.9750,7.1818,352.9558,0,U,59065,999,13386,.1772212E-3,.8673E-4,0
RESURS-P 4,2024-061A,2026-07-20T23:04:38.078112,15.32301623,.0003196,97.2761,149.2785,80.8329,279.3274,0,U,59371,999,12893,.65313109E-4,.1961E-4,0
LEGION 1,2024-081A,2026-07-20T20:56:08.436768,15.16866999,.00078526,97.5007,279.3723,246.1082,113.9329,0,U,59625,999,12264,.11351318E-3,.2168E-4,0
LEGION 2,2024-081B,2026-07-20T21:40:00.794208,15.16846897,.00106631,97.5007,279.4990,211.9392,148.1196,0,U,59626,999,12265,.11542445E-3,.2205E-4,0
ALOS-4 (DAICHI-4),2024-123A,2026-07-19T19:48:16.268256,14.79476713,.00015429,97.9221,297.5326,98.1551,261.9835,0,U,60182,999,11070,.89648823E-4,.618E-5,0
LEGION 3,2024-146A,2026-07-20T20:56:59.792064,15.15675485,.00076397,45.0013,209.9548,5.2969,354.7989,0,U,60452,999,10713,.99127444E-4,.1655E-4,0
LEGION 4,2024-146B,2026-07-20T14:36:50.157504,15.15703469,.00093368,45.0021,303.2373,147.1021,213.0440,0,U,60453,999,10594,.13089519E-3,.2273E-4,0
SENTINEL-2C,2024-157A,2026-07-20T22:46:15.335904,14.30816754,.00010287,98.5680,276.2510,107.2606,252.8690,0,U,60989,999,9781,.35375172E-4,.49E-6,0
IONOSFERA-M 1,2024-199A,2026-07-20T22:48:14.373504,14.22759890,.00020707,98.7128,74.7589,64.3894,295.7497,0,U,61735,999,13250,.25560654E-4,.13E-6,0
