GAOFEN-11 01            
1 43585U 18063A   26201.94122586  .00009836  00000+0  14190-3 0  9994
2 43585  97.1269 268.7425 0003827 178.0901 182.0370 15.56177726445596
ICESAT-2                
1 43613U 18070A   26201.87712983  .00006185  00000+0  22482-3 0  9999
2 43613  92.0085 300.0838 0004954  45.8361 314.3295 15.28236110437600
HYSIS                   
1 43719U 18096A   26201.97893693  .00000204  00000+0  34903-4 0  9991
2 43719  97.9819 268.4594 0001762  82.1592 277.9819 14.78675538412419
KAZSTSAT                
1 43783U 18099AB  26201.05321022  .00000021  00000+0  61511-5 0  9999
2 43783  97.4309 231.5017 0007190 320.5226  39.5473 14.99958351416236
SAUDISAT 5A             
1 43831U 18102A   26201.95147455  .00003565  00000+0  13163-3 0  9997
2 43831  97.3046 262.8850 0009879  25.0740 335.0977 15.28356355420836
SAUDISAT 5B             
1 43833U 18102C   26201.96483155  .00003384  00000+0  12416-3 0  9999
2 43833  97.3155 266.0290 0010648  26.3811 333.7969 15.28597608420959
GAOFEN-10R              
1 44622U 19066A   26201.95619590  .00000680  00000+0  90293-4 0  9995
2 44622  98.0512 155.7843 0006561  37.4039 322.7630 14.83064966367389
CARTOSAT-3              
1 44804U 19081A   26201.94545183  .00001564  00000+0  77429-4 0  9997
2 44804  97.4283 263.2651 0012555  41.0693 319.1484 15.19205718368591
GAOFEN-12 01            
1 44819U 19082A   26201.94096071  .00000220  00000+0  35343-4 0  9998
2 44819  97.8112 207.4313 0000705  66.3293 293.7993 14.80482282359083
CSG-1                   
1 44873U 19092A   26201.94164350  .00000202  00000+0  31959-4 0  9994
2 44873  97.8900  25.0571 0001461  94.8050 265.3330 14.82159597356477
NEMO-HD                 
1 46277U 20061F   26201.93997260  .00008252  00000+0  17559-3 0  9997
2 46277  97.1897 263.5631 0001031 113.0038 247.1320 15.45215577327199
SENTINEL-6A             
1 46984U 20086A   26201.89236175 -.00000062  00000+0 -61804-5 0  9992
2 46984  66.0411  65.0469 0007785 269.6345  90.3778 12.80930248264646
CAS500-1                
1 47932U 21022A   26201.96275429  .00003768  00000+0  17717-3 0  9996
2 47932  97.3852  96.5247 0005794 152.6759 207.4782 15.20169261295890
GAOFEN-12 02            
1 48079U 21026A   26201.95565661  .00000207  00000+0  34047-4 0  9993
2 48079  97.9939 200.0011 0006114 117.3085 242.8750 14.80318742286751
PLEIADES NEO 3          
1 48268U 21034A   26201.95186535  .00000080  00000+0  16824-4 0  9993
2 48268  97.8937 276.2330 0001366  98.1626 261.9742 14.81660784282653
PLEIADES NEO 4          
1 49070U 21073E   26201.91807266  .00000691  00000+0  94436-4 0  9998
2 49070  97.8935 276.1957 0001388  95.8500 264.2872 14.81674731266363
LANDSAT 9               
1 49260U 21088A   26201.91348254  .00000195  00000+0  53464-4 0  9997
2 49260  98.2265 271.6799 0001074  92.7210 267.4111 14.57098108255916
CSG-2                   
1 51444U 22008A   26200.35510889  .00000311  00000+0  45604-4 0  9996
2 51444  97.8896  23.4868 0001661  89.8481 270.2922 14.82176378241356
GAOFEN-12 03            
1 52912U 22069A   26201.99130767  .00000782  00000+0  10984-3 0  9992
2 52912  97.8230  89.0023 0002374  67.1992 292.9471 14.80082272219619
SWOT                    
1 54754U 22173A   26201.85754531  .00000023  00000+0  17292-4 0  9998
2 54754  77.6117 349.8539 0000225  67.5415 292.5760 14.00172571183869
GAOFEN-12 04            
1 57654U 23123A   26201.94455477  .00000558  00000+0  81058-4 0  9997
2 57654  97.9096 119.4561 0003206  37.9161 322.2276 14.79781874157625
PARS 1                  
1 59065U 24039Q   26201.97009294  .00008673  00000+0  17722-3 0  9999
2 59065  97.4847 183.9750 0009016   7.1818 352.9558 15.46369752133866
RESURS-P 4              
1 59371U 24061A   26201.96155183  .00001961  00000+0  65313-4 0  9995
2 59371  97.2761 149.2785 0003196  80.8329 279.3274 15.32301623128937
LEGION 1                
1 59625U 24081A   26201.87231987  .00002168  00000+0  11351-3 0  9998
2 59625  97.5007 279.3723 0007852 246.1082 113.9329 15.16866999122648
LEGION 2                
1 59626U 24081B   26201.90278697  .00002205  00000+0  11542-3 0  9996
2 59626  97.5007 279.4990 0010663 211.9392 148.1196 15.16846897122652
ALOS-4 (DAICHI-4)       
1 60182U 24123A   26200.82518829  .00000618  00000+0  89649-4 0  9996
2 60182  97.9221 297.5326 0001542  98.1551 261.9835 14.79476713110706
LEGION 3                
1 60452U 24146A   26201.87291426  .00001655  00000+0  99127-4 0  9992
2 60452  45.0013 209.9548 0007639   5.2969 354.7989 15.15675485107139
LEGION 4                
1 60453U 24146B   26201.60891386  .00002273  00000+0  13090-3 0  9996
2 60453  45.0021 303.2373 0009336 147.1021 213.0440 15.15703469105944
SENTINEL-2C             
1 60989U 24157A   26201.94878861  .00000049  00000+0  35375-4 0  9992
2 60989  98.5680 276.2510 0001028 107.2606 252.8690 14.30816754 97812
IONOSFERA-M 1           
1 61735U 24199A   26201.95016636  .00000013  00000+0  25561-4 0  9990
2 61735  98.7128  74.7589 0002070  64.3894 295.7497 14.22759890132503
